{"type": "FeatureCollection", "features": [ {"type": "Feature", "properties": {"norad_id": 35961, "name": "COSMOS 2251 DEB", "group": "cosmos-2251-debris", "lat": 73.11132161535997, "lon": -49.029269199041714, "alt_km": 761.3309957071251, "timestamp": "2025-12-13T13:34:35.437053+00:00", "meta": {"OBJECT_NAME": "COSMOS 2251 DEB", "OBJECT_ID": "1993-036AVB", "EPOCH": "2025-12-12T23:27:31.211712", "MEAN_MOTION": 14.05387314, "ECCENTRICITY": 0.01919165, "INCLINATION": 73.9249, "RA_OF_ASC_NODE": 203.761, "ARG_OF_PERICENTER": 137.1777, "MEAN_ANOMALY": 224.4492, "EPHEMERIS_TYPE": 0, "CLASSIFICATION_TYPE": "U", "NORAD_CAT_ID": 35961, "ELEMENT_SET_NO": 999, "REV_AT_EPOCH": 62685, "BSTAR": 0.0013108557, "MEAN_MOTION_DOT": 2.484e-05, "MEAN_MOTION_DDOT": 0}, "tle": {"line1": "1 35961U 93036AVB 25346.97744458  .00002484  00000+0  13109-2 0  9996", "line2": "2 35961  73.9249 203.7610 0191916 137.1777 224.4492 14.05387314626859"}}, "geometry": {"type": "Point", "coordinates": [-49.029269199041714, 73.11132161535997]}}, {"type": "Feature", "properties": {"norad_id": 35979, "name": "COSMOS 2251 DEB", "group": "cosmos-2251-debris", "lat": -10.617245271820678, "lon": 59.84964614003766, "alt_km": 691.4996606444402, "timestamp": "2025-12-13T13:34:35.437062+00:00", "meta": {"OBJECT_NAME": "COSMOS 2251 DEB", "OBJECT_ID": "1993-036AVV", "EPOCH": "2025-12-12T23:45:06.669792", "MEAN_MOTION": 14.74652089, "ECCENTRICITY": 0.00589078, "INCLINATION": 74.0101, "RA_OF_ASC_NODE": 237.8948, "ARG_OF_PERICENTER": 10.0091, "MEAN_ANOMALY": 4.2264, "EPHEMERIS_TYPE": 0, "CLASSIFICATION_TYPE": "U", "NORAD_CAT_ID": 35979, "ELEMENT_SET_NO": 999, "REV_AT_EPOCH": 88637, "BSTAR": 0.0014067844, "MEAN_MOTION_DOT": 9.634e-05, "MEAN_MOTION_DDOT": 0}, "tle": {"line1": "1 35979U 93036AVV 25346.98966053  .00009634  00000+0  14068-2 0  9992", "line2": "2 35979  74.0101 237.8948 0058907  10.0091   4.2264 14.74652089886375"}}, "geometry": {"type": "Point", "coordinates": [59.84964614003766, -10.617245271820678]}}, {"type": "Feature", "properties": {"norad_id": 35980, "name": "COSMOS 2251 DEB", "group": "cosmos-2251-debris", "lat": 23.190547574070795, "lon": 128.19778239982332, "alt_km": 718.262943862359, "timestamp": "2025-12-13T13:34:35.437071+00:00", "meta": {"OBJECT_NAME": "COSMOS 2251 DEB", "OBJECT_ID": "1993-036AVW", "EPOCH": "2025-12-12T16:04:36.825888", "MEAN_MOTION": 14.59307248, "ECCENTRICITY": 0.00536829, "INCLINATION": 73.9106, "RA_OF_ASC_NODE": 122.815, "ARG_OF_PERICENTER": 257.3132, "MEAN_ANOMALY": 102.2028, "EPHEMERIS_TYPE": 0, "CLASSIFICATION_TYPE": "U", "NORAD_CAT_ID": 35980, "ELEMENT_SET_NO": 999, "REV_AT_EPOCH": 61485, "BSTAR": 0.0026199554, "MEAN_MOTION_DOT": 0.00012627, "MEAN_MOTION_DDOT": 0}, "tle": {"line1": "1 35980U 93036AVW 25346.66987067  .00012627  00000+0  26200-2 0  9994", "line2": "2 35980  73.9106 122.8150 0053682 257.3132 102.2028 14.59307248614851"}}, "geometry": {"type": "Point", "coordinates": [128.19778239982332, 23.190547574070795]}}, {"type": "Feature", "properties": {"norad_id": 35982, "name": "COSMOS 2251 DEB", "group": "cosmos-2251-debris", "lat": -40.890806656175165, "lon": -28.981501290588394, "alt_km": 693.5756068741348, "timestamp": "2025-12-13T13:34:35.437080+00:00", "meta": {"OBJECT_NAME": "COSMOS 2251 DEB", "OBJECT_ID": "1993-036AVY", "EPOCH": "2025-12-12T18:04:28.503552", "MEAN_MOTION": 14.62750675, "ECCENTRICITY": 0.0064127, "INCLINATION": 74.0586, "RA_OF_ASC_NODE": 346.9035, "ARG_OF_PERICENTER": 53.2194, "MEAN_ANOMALY": 307.4835, "EPHEMERIS_TYPE": 0, "CLASSIFICATION_TYPE": "U", "NORAD_CAT_ID": 35982, "ELEMENT_SET_NO": 999, "REV_AT_EPOCH": 86166, "BSTAR": 0.00087981481, "MEAN_MOTION_DOT": 4.592e-05, "MEAN_MOTION_DDOT": 0}, "tle": {"line1": "1 35982U 93036AVY 25346.75310768  .00004592  00000+0  87981-3 0  9990", "line2": "2 35982  74.0586 346.9035 0064127  53.2194 307.4835 14.62750675861663"}}, "geometry": {"type": "Point", "coordinates": [-28.981501290588394, -40.890806656175165]}}, {"type": "Feature", "properties": {"norad_id": 35987, "name": "COSMOS 2251 DEB", "group": "cosmos-2251-debris", "lat": -66.70502711922298, "lon": -173.10294873595097, "alt_km": 786.1897963739339, "timestamp": "2025-12-13T13:34:35.437089+00:00", "meta": {"OBJECT_NAME": "COSMOS 2251 DEB", "OBJECT_ID": "1993-036AWD", "EPOCH": "2025-12-11T05:30:31.150080", "MEAN_MOTION": 14.43110132, "ECCENTRICITY": 0.00459363, "INCLINATION": 74.0001, "RA_OF_ASC_NODE": 329.4532, "ARG_OF_PERICENTER": 95.6067, "MEAN_ANOMALY": 265.033, "EPHEMERIS_TYPE": 0, "CLASSIFICATION_TYPE": "U", "NORAD_CAT_ID": 35987, "ELEMENT_SET_NO": 999, "REV_AT_EPOCH": 61043, "BSTAR": 0.0014697546, "MEAN_MOTION_DOT": 4.973e-05, "MEAN_MOTION_DDOT": 0}, "tle": {"line1": "1 35987U 93036AWD 25345.22952720  .00004973  00000+0  14698-2 0  9993", "line2": "2 35987  74.0001 329.4532 0045936  95.6067 265.0330 14.43110132610437"}}, "geometry": {"type": "Point", "coordinates": [-173.10294873595097, -66.70502711922298]}}, {"type": "Feature", "properties": {"norad_id": 35989, "name": "COSMOS 2251 DEB", "group": "cosmos-2251-debris", "lat": -71.50101759345046, "lon": -136.4924557491132, "alt_km": 773.4584492230624, "timestamp": "2025-12-13T13:34:35.437098+00:00", "meta": {"OBJECT_NAME": "COSMOS 2251 DEB", "OBJECT_ID": "1993-036AWF", "EPOCH": "2025-12-10T12:26:20.084064", "MEAN_MOTION": 14.37097303, "ECCENTRICITY": 0.0021915, "INCLINATION": 74.0383, "RA_OF_ASC_NODE": 287.9166, "ARG_OF_PERICENTER": 10.2145, "MEAN_ANOMALY": 349.9449, "EPHEMERIS_TYPE": 0, "CLASSIFICATION_TYPE": "U", "NORAD_CAT_ID": 35989, "ELEMENT_SET_NO": 999, "REV_AT_EPOCH": 87147, "BSTAR": 0.00040745, "MEAN_MOTION_DOT": 1.187e-05, "MEAN_MOTION_DDOT": 0}, "tle": {"line1": "1 35989U 93036AWF 25344.51828801  .00001187  00000+0  40745-3 0  9995", "line2": "2 35989  74.0383 287.9166 0021915  10.2145 349.9449 14.37097303871477"}}, "geometry": {"type": "Point", "coordinates": [-136.4924557491132, -71.50101759345046]}}, {"type": "Feature", "properties": {"norad_id": 35993, "name": "COSMOS 2251 DEB", "group": "cosmos-2251-debris", "lat": -58.387616673755275, "lon": 178.96367774856404, "alt_km": 679.7944236633057, "timestamp": "2025-12-13T13:34:35.437107+00:00", "meta": {"OBJECT_NAME": "COSMOS 2251 DEB", "OBJECT_ID": "1993-036AWK", "EPOCH": "2025-12-12T06:58:55.226208", "MEAN_MOTION": 14.65296374, "ECCENTRICITY": 0.00289249, "INCLINATION": 74.0152, "RA_OF_ASC_NODE": 333.6624, "ARG_OF_PERICENTER": 163.4674, "MEAN_ANOMALY": 196.7445, "EPHEMERIS_TYPE": 0, "CLASSIFICATION_TYPE": "U", "NORAD_CAT_ID": 35993, "ELEMENT_SET_NO": 999, "REV_AT_EPOCH": 60436, "BSTAR": 0.0011604815, "MEAN_MOTION_DOT": 6.273e-05, "MEAN_MOTION_DDOT": 0}, "tle": {"line1": "1 35993U 93036AWK 25346.29091697  .00006273  00000+0  11605-2 0  9995", "line2": "2 35993  74.0152 333.6624 0028924 163.4674 196.7445 14.65296374604365"}}, "geometry": {"type": "Point", "coordinates": [178.96367774856404, -58.387616673755275]}}, {"type": "Feature", "properties": {"norad_id": 35996, "name": "COSMOS 2251 DEB", "group": "cosmos-2251-debris", "lat": 72.74810103772036, "lon": -145.65892130462527, "alt_km": 537.2308317708685, "timestamp": "2025-12-13T13:34:35.437116+00:00", "meta": {"OBJECT_NAME": "COSMOS 2251 DEB", "OBJECT_ID": "1993-036AWN", "EPOCH": "2025-12-11T00:41:09.521088", "MEAN_MOTION": 15.0906793, "ECCENTRICITY": 0.00884253, "INCLINATION": 74.0157, "RA_OF_ASC_NODE": 106.9511, "ARG_OF_PERICENTER": 198.4339, "MEAN_ANOMALY": 161.3644, "EPHEMERIS_TYPE": 0, "CLASSIFICATION_TYPE": "U", "NORAD_CAT_ID": 35996, "ELEMENT_SET_NO": 999, "REV_AT_EPOCH": 72300, "BSTAR": 0.0011651351, "MEAN_MOTION_DOT": 0.00020245, "MEAN_MOTION_DDOT": 0}, "tle": {"line1": "1 35996U 93036AWN 25345.02858242  .00020245  00000+0  11651-2 0  9991", "line2": "2 35996  74.0157 106.9511 0088425 198.4339 161.3644 15.09067930723002"}}, "geometry": {"type": "Point", "coordinates": [-145.65892130462527, 72.74810103772036]}}, {"type": "Feature", "properties": {"norad_id": 35997, "name": "COSMOS 2251 DEB", "group": "cosmos-2251-debris", "lat": 16.19300165246476, "lon": -169.49330853641084, "alt_km": 726.4993617296559, "timestamp": "2025-12-13T13:34:35.437125+00:00", "meta": {"OBJECT_NAME": "COSMOS 2251 DEB", "OBJECT_ID": "1993-036AWP", "EPOCH": "2025-12-12T06:03:58.850208", "MEAN_MOTION": 14.51308894, "ECCENTRICITY": 0.00156756, "INCLINATION": 74.0432, "RA_OF_ASC_NODE": 188.2092, "ARG_OF_PERICENTER": 263.8458, "MEAN_ANOMALY": 96.0917, "EPHEMERIS_TYPE": 0, "CLASSIFICATION_TYPE": "U", "NORAD_CAT_ID": 35997, "ELEMENT_SET_NO": 999, "REV_AT_EPOCH": 70877, "BSTAR": 0.00092768466, "MEAN_MOTION_DOT": 3.673e-05, "MEAN_MOTION_DDOT": 0}, "tle": {"line1": "1 35997U 93036AWP 25346.25276447  .00003673  00000+0  92768-3 0  9994", "line2": "2 35997  74.0432 188.2092 0015675 263.8458  96.0917 14.51308894708779"}}, "geometry": {"type": "Point", "coordinates": [-169.49330853641084, 16.19300165246476]}}, {"type": "Feature", "properties": {"norad_id": 36005, "name": "COSMOS 2251 DEB", "group": "cosmos-2251-debris", "lat": 34.99414999506746, "lon": 104.02768193908688, "alt_km": 774.534246761229, "timestamp": "2025-12-13T13:34:35.437134+00:00", "meta": {"OBJECT_NAME": "COSMOS 2251 DEB", "OBJECT_ID": "1993-036AWX", "EPOCH": "2025-12-13T00:08:06.545184", "MEAN_MOTION": 14.47358791, "ECCENTRICITY": 0.00619434, "INCLINATION": 74.0268, "RA_OF_ASC_NODE": 93.5081, "ARG_OF_PERICENTER": 230.821, "MEAN_ANOMALY": 128.7437, "EPHEMERIS_TYPE": 0, "CLASSIFICATION_TYPE": "U", "NORAD_CAT_ID": 36005, "ELEMENT_SET_NO": 999, "REV_AT_EPOCH": 87588, "BSTAR": 0.00033017096, "MEAN_MOTION_DOT": 1.21e-05, "MEAN_MOTION_DDOT": 0}, "tle": {"line1": "1 36005U 93036AWX 25347.00563131  .00001210  00000+0  33017-3 0  9995", "line2": "2 36005  74.0268  93.5081 0061943 230.8210 128.7437 14.47358791875885"}}, "geometry": {"type": "Point", "coordinates": [104.02768193908688, 34.99414999506746]}}]}